GLOBALSTAR M035         
1 25851U 99037A   24136.57123670 -.00000091  00000+0 -10371-2 0  9991
2 25851  51.9938 221.6788 0013225  59.9178  46.2812 11.04530548 52320
GLOBALSTAR M032         
1 25852U 99037B   24136.12670953 -.00000045  00000+0  69267-3 0  9991
2 25852  51.9958  75.3297 0009490 216.0656 143.9504 11.19052220 90224
GLOBALSTAR M051         
1 25853U 99037C   24136.57096073 -.00000038  00000+0  83248-3 0  9993
2 25853  51.9797 280.0844 0001452 194.7316 165.3453 11.42196511 86958
GLOBALSTAR M030         
1 25854U 99037D   24136.28251636 -.00000052  00000+0  47869-3 0  9995
2 25854  51.9851 112.1855 0003920  53.5187 306.5991 11.55095783104069
GLOBALSTAR M048         
1 25872U 99041A   24136.42540517 -.00000058  00000+0  32143-3 0  9990
2 25872  51.9350 200.0905 0013861 215.8146 156.7131 11.33846241 79868
GLOBALSTAR M026         
1 25873U 99041B   24136.49497571 -.00000067  00000+0 -99632-4 0  9997
2 25873  52.0040 343.9945 0000980 334.1052  29.0378 11.06837150104455
GLOBALSTAR M043         
1 25874U 99041C   24136.63802284 -.00000059  00000+0  27545-3 0  9998
2 25874  51.9407 291.3843 0012218 357.2681  86.0996 11.25681965 78108
GLOBALSTAR M028         
1 25875U 99041D   24136.60602627 -.00000046  00000+0  35026-3 0  9994
2 25875  51.9630 298.5553 0062607 288.0263  71.3783 12.50555442140434
